CCSDS_OEM_VERS = 2.0
CREATION_DATE = 2002-11-04T17:22:31
ORIGINATOR = NASA/JPL
COMMENT GEOSCIENCE LASER ALTIMETER SYSTEM

META_START
OBJECT_NAME = GLAS
OBJECT_ID = 2003-002A
CENTER_NAME = EARTH
REF_FRAME = EME2000
TIME_SYSTEM = UTC
START_TIME = 2003-01-13T00:00:00.000
STOP_TIME = 2003-01-13T00:01:00.000
INTERPOLATION = HERMITE
INTERPOLATION_DEGREE = 7
META_STOP

COMMENT first arc
2003-01-13T00:00:00 6503.514 1239.647 -717.972 -0.873 6.114 -3.53 0.001 0.002 0.003
2003-01-13T00:01:00 6450.123 1605.321 -930.512 -0.901 6.001 -3.601 0.001 0.002 0.003

META_START
OBJECT_NAME = GLAS
OBJECT_ID = 2003-002A
CENTER_NAME = EARTH
REF_FRAME = EME2000
TIME_SYSTEM = UTC
START_TIME = 2003-01-13T00:02:00.000
STOP_TIME = 2003-01-13T00:02:00.000
META_STOP

2003-01-13T00:02:00 6394.0 1970.0 -1142.0 -0.93 5.88 -3.67

COVARIANCE_START
EPOCH = 2003-01-13T00:02:00
COV_REF_FRAME = RTN
0.31
0.32 0.33
0.34 0.35 0.36
0.37 0.38 0.39 0.4
0.41 0.42 0.43 0.44 0.45
0.46 0.47 0.48 0.49 0.5 0.51
COVARIANCE_STOP
